[{"OBJECT_NAME":"SL-8 R/B","OBJECT_ID":"1991-006B","EPOCH":"2026-03-13T07:53:10.970016","MEAN_MOTION":13.77494777,"ECCENTRICITY":0.00228644,"INCLINATION":82.9465,"RA_OF_ASC_NODE":167.3408,"ARG_OF_PERICENTER":28.4025,"MEAN_ANOMALY":31.7202,"EPHEMERIS_TYPE":0,"CLASSIFICATION_TYPE":"U","NORAD_CAT_ID":21088,"ELEMENT_SET_NO":999,"REV_AT_EPOCH":76457,"BSTAR":5.5831595e-5,"MEAN_MOTION_DOT":7.1e-7,"MEAN_MOTION_DDOT":0},{"OBJECT_NAME":"OKEAN-3","OBJECT_ID":"1991-039A","EPOCH":"2026-03-13T16:02:55.849344","MEAN_MOTION":15.04839137,"ECCENTRICITY":0.00135939,"INCLINATION":82.52,"RA_OF_ASC_NODE":332.9891,"ARG_OF_PERICENTER":322.6481,"MEAN_ANOMALY":37.38,"EPHEMERIS_TYPE":0,"CLASSIFICATION_TYPE":"U","NORAD_CAT_ID":21397,"ELEMENT_SET_NO":999,"REV_AT_EPOCH":86563,"BSTAR":0.0002858362,"MEAN_MOTION_DOT":4.072e-5,"MEAN_MOTION_DDOT":0},{"OBJECT_NAME":"COSMOS 2151","OBJECT_ID":"1991-042A","EPOCH":"2026-03-13T22:51:24.067296","MEAN_MOTION":15.00123072,"ECCENTRICITY":0.00137723,"INCLINATION":82.4929,"RA_OF_ASC_NODE":79.5629,"ARG_OF_PERICENTER":50.6644,"MEAN_ANOMALY":309.5798,"EPHEMERIS_TYPE":0,"CLASSIFICATION_TYPE":"U","NORAD_CAT_ID":21422,"ELEMENT_SET_NO":999,"REV_AT_EPOCH":86383,"BSTAR":0.00021383556,"MEAN_MOTION_DOT":2.698e-5,"MEAN_MOTION_DDOT":0},{"OBJECT_NAME":"SL-14 R/B","OBJECT_ID":"1991-042B","EPOCH":"2026-03-13T19:25:22.151424","MEAN_MOTION":14.81834487,"ECCENTRICITY":0.00160207,"INCLINATION":82.4932,"RA_OF_ASC_NODE":216.3193,"ARG_OF_PERICENTER":224.103,"MEAN_ANOMALY":135.8908,"EPHEMERIS_TYPE":0,"CLASSIFICATION_TYPE":"U","NORAD_CAT_ID":21423,"ELEMENT_SET_NO":999,"REV_AT_EPOCH":85368,"BSTAR":7.1305259e-5,"MEAN_MOTION_DOT":5.87e-6,"MEAN_MOTION_DDOT":0},{"OBJECT_NAME":"ERS-1","OBJECT_ID":"1991-050A","EPOCH":"2026-03-13T22:30:00.052704","MEAN_MOTION":14.394529,"ECCENTRICITY":0.00318596,"INCLINATION":98.7877,"RA_OF_ASC_NODE":91.2787,"ARG_OF_PERICENTER":187.7541,"MEAN_ANOMALY":172.3158,"EPHEMERIS_TYPE":0,"CLASSIFICATION_TYPE":"U","NORAD_CAT_ID":21574,"ELEMENT_SET_NO":999,"REV_AT_EPOCH":81634,"BSTAR":0.00012590206,"MEAN_MOTION_DOT":3.48e-6,"MEAN_MOTION_DDOT":0},{"OBJECT_NAME":"ARIANE 40 R/B","OBJECT_ID":"1991-050F","EPOCH":"2026-03-13T21:48:57.696768","MEAN_MOTION":14.42896973,"ECCENTRICITY":0.00042158,"INCLINATION":98.2004,"RA_OF_ASC_NODE":124.987,"ARG_OF_PERICENTER":72.0589,"MEAN_ANOMALY":288.1061,"EPHEMERIS_TYPE":0,"CLASSIFICATION_TYPE":"U","NORAD_CAT_ID":21610,"ELEMENT_SET_NO":999,"REV_AT_EPOCH":81960,"BSTAR":0.00011092948,"MEAN_MOTION_DOT":3.29e-6,"MEAN_MOTION_DDOT":0},{"OBJECT_NAME":"INTERCOSMOS 25","OBJECT_ID":"1991-086A","EPOCH":"2026-03-13T22:48:38.892096","MEAN_MOTION":12.12014954,"ECCENTRICITY":0.14868883,"INCLINATION":82.6046,"RA_OF_ASC_NODE":307.4329,"ARG_OF_PERICENTER":107.7557,"MEAN_ANOMALY":269.0983,"EPHEMERIS_TYPE":0,"CLASSIFICATION_TYPE":"U","NORAD_CAT_ID":21819,"ELEMENT_SET_NO":999,"REV_AT_EPOCH":49720,"BSTAR":0.0004087714,"MEAN_MOTION_DOT":2.121e-5,"MEAN_MOTION_DDOT":0},{"OBJECT_NAME":"SL-8 R/B","OBJECT_ID":"1992-008B","EPOCH":"2026-03-13T22:46:24.705984","MEAN_MOTION":13.75969757,"ECCENTRICITY":0.00357161,"INCLINATION":82.9222,"RA_OF_ASC_NODE":264.609,"ARG_OF_PERICENTER":121.7976,"MEAN_ANOMALY":346.3725,"EPHEMERIS_TYPE":0,"CLASSIFICATION_TYPE":"U","NORAD_CAT_ID":21876,"ELEMENT_SET_NO":999,"REV_AT_EPOCH":71000,"BSTAR":-6.588805e-6,"MEAN_MOTION_DOT":9.0e-8,"MEAN_MOTION_DDOT":0},{"OBJECT_NAME":"SL-8 R/B","OBJECT_ID":"1992-020B","EPOCH":"2026-03-13T07:56:12.465312","MEAN_MOTION":13.75549826,"ECCENTRICITY":0.0027613,"INCLINATION":82.9331,"RA_OF_ASC_NODE":151.0586,"ARG_OF_PERICENTER":288.1754,"MEAN_ANOMALY":140.4512,"EPHEMERIS_TYPE":0,"CLASSIFICATION_TYPE":"U","NORAD_CAT_ID":21938,"ELEMENT_SET_NO":999,"REV_AT_EPOCH":70163,"BSTAR":3.4423734e-5,"MEAN_MOTION_DOT":4.8e-7,"MEAN_MOTION_DDOT":0},{"OBJECT_NAME":"USA 81","OBJECT_ID":"1992-023A","EPOCH":"2026-03-13T20:24:23.051520","MEAN_MOTION":14.32369362,"ECCENTRICITY":0.00023535,"INCLINATION":85.0076,"RA_OF_ASC_NODE":129.041,"ARG_OF_PERICENTER":74.3719,"MEAN_ANOMALY":285.7733,"EPHEMERIS_TYPE":0,"CLASSIFICATION_TYPE":"U","NORAD_CAT_ID":21949,"ELEMENT_SET_NO":999,"REV_AT_EPOCH":9538,"BSTAR":5.7183037e-5,"MEAN_MOTION_DOT":1.74e-6,"MEAN_MOTION_DDOT":0},{"OBJECT_NAME":"COSMOS 2219","OBJECT_ID":"1992-076A","EPOCH":"2026-03-13T23:27:35.532576","MEAN_MOTION":14.14093587,"ECCENTRICITY":0.00187388,"INCLINATION":71.064,"RA_OF_ASC_NODE":9.1048,"ARG_OF_PERICENTER":201.0583,"MEAN_ANOMALY":158.977,"EPHEMERIS_TYPE":0,"CLASSIFICATION_TYPE":"U","NORAD_CAT_ID":22219,"ELEMENT_SET_NO":999,"REV_AT_EPOCH":71898,"BSTAR":2.6307505e-5,"MEAN_MOTION_DOT":3.0e-8,"MEAN_MOTION_DDOT":0},{"OBJECT_NAME":"SL-16 R/B","OBJECT_ID":"1992-076B","EPOCH":"2026-03-13T17:46:21.023904","MEAN_MOTION":14.16859187,"ECCENTRICITY":0.0010499,"INCLINATION":71.0008,"RA_OF_ASC_NODE":179.8415,"ARG_OF_PERICENTER":88.9218,"MEAN_ANOMALY":72.986,"EPHEMERIS_TYPE":0,"CLASSIFICATION_TYPE":"U","NORAD_CAT_ID":22220,"ELEMENT_SET_NO":999,"REV_AT_EPOCH":72240,"BSTAR":-9.057672e-6,"MEAN_MOTION_DOT":-6.6e-7,"MEAN_MOTION_DDOT":0},{"OBJECT_NAME":"COSMOS 2221","OBJECT_ID":"1992-080A","EPOCH":"2026-03-13T22:01:13.895616","MEAN_MOTION":14.96219175,"ECCENTRICITY":0.00144076,"INCLINATION":82.501,"RA_OF_ASC_NODE":275.0304,"ARG_OF_PERICENTER":172.8663,"MEAN_ANOMALY":187.2767,"EPHEMERIS_TYPE":0,"CLASSIFICATION_TYPE":"U","NORAD_CAT_ID":22236,"ELEMENT_SET_NO":999,"REV_AT_EPOCH":78142,"BSTAR":0.00018795986,"MEAN_MOTION_DOT":2.149e-5,"MEAN_MOTION_DDOT":0},{"OBJECT_NAME":"SL-16 R/B","OBJECT_ID":"1992-093B","EPOCH":"2026-03-13T23:30:47.029536","MEAN_MOTION":14.15447017,"ECCENTRICITY":0.00063567,"INCLINATION":71.0241,"RA_OF_ASC_NODE":355.2607,"ARG_OF_PERICENTER":289.1357,"MEAN_ANOMALY":70.9078,"EPHEMERIS_TYPE":0,"CLASSIFICATION_TYPE":"U","NORAD_CAT_ID":22285,"ELEMENT_SET_NO":999,"REV_AT_EPOCH":71376,"BSTAR":-1.8726274e-5,"MEAN_MOTION_DOT":-8.4e-7,"MEAN_MOTION_DDOT":0},{"OBJECT_NAME":"COSMOS 2228","OBJECT_ID":"1992-094A","EPOCH":"2026-03-13T22:20:44.806560","MEAN_MOTION":14.97215069,"ECCENTRICITY":0.00166517,"INCLINATION":82.5159,"RA_OF_ASC_NODE":233.2487,"ARG_OF_PERICENTER":289.2543,"MEAN_ANOMALY":70.6878,"EPHEMERIS_TYPE":0,"CLASSIFICATION_TYPE":"U","NORAD_CAT_ID":22286,"ELEMENT_SET_NO":999,"REV_AT_EPOCH":77669,"BSTAR":0.00025906701,"MEAN_MOTION_DOT":3.03e-5,"MEAN_MOTION_DDOT":0},{"OBJECT_NAME":"SL-16 R/B","OBJECT_ID":"1993-016B","EPOCH":"2026-03-13T19:24:16.000992","MEAN_MOTION":14.15309346,"ECCENTRICITY":0.00120855,"INCLINATION":71.008,"RA_OF_ASC_NODE":206.53,"ARG_OF_PERICENTER":308.6473,"MEAN_ANOMALY":51.3568,"EPHEMERIS_TYPE":0,"CLASSIFICATION_TYPE":"U","NORAD_CAT_ID":22566,"ELEMENT_SET_NO":999,"REV_AT_EPOCH":70275,"BSTAR":-1.3385089e-5,"MEAN_MOTION_DOT":-7.4e-7,"MEAN_MOTION_DDOT":0},{"OBJECT_NAME":"COSMOS 2242","OBJECT_ID":"1993-024A","EPOCH":"2026-03-13T21:57:41.814720","MEAN_MOTION":14.9656746,"ECCENTRICITY":0.00149589,"INCLINATION":82.5154,"RA_OF_ASC_NODE":262.6739,"ARG_OF_PERICENTER":293.392,"MEAN_ANOMALY":66.5728,"EPHEMERIS_TYPE":0,"CLASSIFICATION_TYPE":"U","NORAD_CAT_ID":22626,"ELEMENT_SET_NO":999,"REV_AT_EPOCH":78102,"BSTAR":0.0001925484,"MEAN_MOTION_DOT":2.22e-5,"MEAN_MOTION_DDOT":0}]
