SL-8 R/B                
1 21088U 91006B   26072.32859919  .00000071  00000+0  55832-4 0  9992
2 21088  82.9465 167.3408 0022864  28.4025  31.7202 13.77494777764577
OKEAN-3                 
1 21397U 91039A   26072.66870196  .00004072  00000+0  28584-3 0  9996
2 21397  82.5200 332.9891 0013593 322.6481  37.3800 15.04839137865633
COSMOS 2151             
1 21422U 91042A   26072.95236189  .00002698  00000+0  21384-3 0  9992
2 21422  82.4929  79.5629 0013772  50.6644 309.5798 15.00123072863830
SL-14 R/B               
1 21423U 91042B   26072.80928416  .00000587  00000+0  71305-4 0  9992
2 21423  82.4932 216.3193 0016020 224.1030 135.8908 14.81834487853680
ERS-1                   
1 21574U 91050A   26072.93750061  .00000348  00000+0  12590-3 0  9996
2 21574  98.7877  91.2787 0031859 187.7541 172.3158 14.39452900816346
ARIANE 40 R/B           
1 21610U 91050F   26072.90900112  .00000329  00000+0  11093-3 0  9994
2 21610  98.2004 124.9870 0004215  72.0589 288.1061 14.42896973819602
INTERCOSMOS 25          
1 21819U 91086A   26072.95045014  .00002121  00000+0  40877-3 0  9994
2 21819  82.6046 307.4329 1486888 107.7557 269.0983 12.12014954497200
SL-8 R/B                
1 21876U 92008B   26072.94889706  .00000009  00000+0 -65888-5 0  9990
2 21876  82.9222 264.6090 0035716 121.7976 346.3725 13.75969757710000
SL-8 R/B                
1 21938U 92020B   26072.33069983  .00000048  00000+0  34424-4 0  9996
2 21938  82.9331 151.0586 0027613 288.1754 140.4512 13.75549826701635
USA 81                  
1 21949U 92023A   26072.85026680  .00000174  00000+0  57183-4 0  9992
2 21949  85.0076 129.0410 0002353  74.3719 285.7733 14.32369362 95383
COSMOS 2219             
1 22219U 92076A   26072.97749459  .00000003  00000+0  26308-4 0  9996
2 22219  71.0640   9.1048 0018738 201.0583 158.9770 14.14093587718986
SL-16 R/B               
1 22220U 92076B   26072.74052111 -.00000066  00000+0 -90577-5 0  9996
2 22220  71.0008 179.8415 0010499  88.9218  72.9860 14.16859187722407
COSMOS 2221             
1 22236U 92080A   26072.91752194  .00002149  00000+0  18796-3 0  9998
2 22236  82.5010 275.0304 0014407 172.8663 187.2767 14.96219175781428
SL-16 R/B               
1 22285U 92093B   26072.97971099 -.00000084  00000+0 -18726-4 0  9991
2 22285  71.0241 355.2607 0006356 289.1357  70.9078 14.15447017713768
COSMOS 2228             
1 22286U 92094A   26072.93107415  .00003030  00000+0  25907-3 0  9992
2 22286  82.5159 233.2487 0016651 289.2543  70.6878 14.97215069776698
SL-16 R/B               
1 22566U 93016B   26072.80851853 -.00000074  00000+0 -13385-4 0  9991
2 22566  71.0080 206.5300 0012085 308.6473  51.3568 14.15309346702757
COSMOS 2242             
1 22626U 93024A   26072.91506730  .00002220  00000+0  19255-3 0  9994
2 22626  82.5154 262.6739 0014958 293.3920  66.5728 14.96567460781025
